NORAD_CAT_ID,OBJECT_NAME,OBJECT_TYPE,EPOCH,MEAN_MOTION,ECCENTRICITY,INCLINATION,RA_OF_ASC_NODE,ARG_OF_PERICENTER,MEAN_ANOMALY,BSTAR,MEAN_MOTION_DOT,MEAN_MOTION_DDOT,TLE_LINE0,TLE_LINE1,TLE_LINE2,SEMIMAJOR_AXIS,PERIOD,APOGEE,PERIGEE,DECAYED
55275.0,STARLINK-5260,PAYLOAD,2023-06-08 14:00:01,15.10619732,0.0003125,70.0006,39.0396,266.2155,148.8464,-0.05881,-0.00902607,0.0,0 STARLINK-5260,1 55275U 23010G   23159.58334491 -.00902607  00000-0 -58810-1 0  9996,2 55275  70.0006  39.0396 0003125 266.2155 148.8464 15.10619732 22405,6912.446,95.325,536.471,532.151,0.0
55275.0,STARLINK-5260,PAYLOAD,2023-06-08 22:00:00,15.09945122,0.0003132,70.0008,38.1833,271.3095,155.5964,-0.058785,-0.0088674,0.0,0 STARLINK-5260,1 55275U 23010G   23159.91667824 -.00886740  00000-0 -58785-1 0  9992,2 55275  70.0008  38.1833 0003132 271.3095 155.5964 15.09945122  1300,6914.505,95.368,538.535,534.204,0.0
55275.0,STARLINK-5260,PAYLOAD,2023-06-09 06:00:00,15.09343324,0.0003035,70.0005,37.3278,272.6041,165.3294,-0.06576,-0.00968783,0.0,0 STARLINK-5260,1 55275U 23010G   23160.25001157 -.00968783  00000-0 -65760-1 0  9991,2 55275  70.0005  37.3278 0003035 272.6041 165.3294 15.09343324 22504,6916.342,95.406,540.306,536.108,0.0
55275.0,STARLINK-5260,PAYLOAD,2023-06-09 14:00:01,15.08667836,0.0003073,70.0007,36.4733,266.3133,181.885,-0.062686,-0.00911014,0.0,0 STARLINK-5260,1 55275U 23010G   23160.58334491 -.00911014  00000-0 -62686-1 0  9996,2 55275  70.0007  36.4733 0003073 266.3133 181.8850 15.08667836  1308,6918.407,95.448,542.398,538.146,0.0
55275.0,STARLINK-5260,PAYLOAD,2023-06-09 22:00:00,15.07987245,0.0003087,70.001,35.6196,271.5015,186.1957,-0.061851,-0.00884305,0.0,0 STARLINK-5260,1 55275U 23010G   23160.91667824 -.00884305  00000-0 -61851-1 0  9997,2 55275  70.0010  35.6196 0003087 271.5015 186.1957 15.07987245 22608,6920.488,95.492,544.49,540.217,0.0
55275.0,STARLINK-5260,PAYLOAD,2023-06-10 14:00:01,15.0671546,0.0003025,70.001,33.9148,265.4427,208.8516,-0.066708,-0.00918551,0.0,0 STARLINK-5260,1 55275U 23010G   23161.58334491 -.00918551  00000-0 -66708-1 0  9999,2 55275  70.0010  33.9148 0003025 265.4427 208.8516 15.06715460 22708,6924.382,95.572,548.342,544.152,0.0
55275.0,STARLINK-5260,PAYLOAD,2023-06-10 22:00:00,15.06029777,0.0003045,70.0012,33.0637,270.7472,210.7002,-0.065067,-0.00882214,0.0,0 STARLINK-5260,1 55275U 23010G   23161.91667824 -.00882214  00000-0 -65067-1 0  9998,2 55275  70.0012  33.0637 0003045 270.7472 210.7002 15.06029777  1309,6926.483,95.616,550.458,546.239,0.0
55275.0,STARLINK-5260,PAYLOAD,2023-06-11 14:00:01,15.04762505,0.0002998,70.0012,31.3642,266.6228,226.7269,-0.070916,-0.00925722,0.0,0 STARLINK-5260,1 55275U 23010G   23162.58334491 -.00925722  00000-0 -70916-1 0  9994,2 55275  70.0012  31.3642 0002998 266.6228 226.7269 15.04762505 22851,6930.372,95.696,554.315,550.159,0.0
55275.0,STARLINK-5260,PAYLOAD,2023-06-11 22:00:00,15.04074336,0.0003079,70.0014,30.5158,274.6878,223.4684,-0.068629,-0.00882762,0.0,0 STARLINK-5260,1 55275U 23010G   23162.91667824 -.00882762  00000-0 -68629-1 0  9994,2 55275  70.0014  30.5158 0003079 274.6878 223.4684 15.04074336  1307,6932.486,95.74,556.485,552.216,0.0
55275.0,STARLINK-5260,PAYLOAD,2023-06-12 14:00:01,15.02808996,0.0002994,70.0014,28.8214,268.8598,236.5683,-0.075179,-0.00930975,0.0,0 STARLINK-5260,1 55275U 23010G   23163.58335648 -.00930975  00000-0 -75179-1 0  9992,2 55275  70.0014  28.8214 0002994 268.8598 236.5683 15.02808996 23009,6936.376,95.821,560.318,556.165,0.0
55275.0,STARLINK-5260,PAYLOAD,2023-06-13 00:00:00,15.01957508,0.0003036,70.0015,27.7641,273.5484,324.7602,-0.072017,-0.00876052,0.0,0 STARLINK-5260,1 55275U 23010G   23164.00001157 -.00876052  00000-0 -72017-1 0  9998,2 55275  70.0015  27.7641 0003036 273.5484 324.7602 15.01957508  1300,6938.998,95.875,562.969,558.756,0.0
55275.0,STARLINK-5260,PAYLOAD,2023-06-13 14:00:01,15.00856856,0.0002991,70.0016,26.2864,268.2227,242.1168,-0.079805,-0.00948678,0.0,0 STARLINK-5260,1 55275U 23010G   23164.58334491 -.00948678  00000-0 -79805-1 0  9997,2 55275  70.0016  26.2864 0002991 268.2227 242.1168 15.00856856  1300,6942.39,95.945,566.331,562.178,0.0
55275.0,STARLINK-5260,PAYLOAD,2023-06-13 22:00:00,15.00145691,0.0003064,70.0014,25.4431,274.0003,236.4581,-0.073465,-0.00853632,0.0,0 STARLINK-5260,1 55275U 23010G   23164.91667824 -.00853632  00000-0 -73465-1 0  9994,2 55275  70.0014  25.4431 0003064 274.0003 236.4581 15.00145691 23204,6944.584,95.991,568.577,564.321,0.0
55275.0,STARLINK-5260,PAYLOAD,2023-06-14 06:00:00,14.9938772,0.0003032,70.0012,24.6005,273.167,236.6068,-0.015998,-0.0019105,0.0,0 STARLINK-5260,1 55275U 23010G   23165.25001157 -.00191050  00000-0 -15998-1 0  9999,2 55275  70.0012  24.6005 0003032 273.1670 236.6068 14.99387720 23250,6946.924,96.039,570.895,566.683,0.0
55275.0,STARLINK-5260,PAYLOAD,2023-06-14 14:00:01,14.9927483,0.0002967,70.0016,23.7588,267.4506,240.9869,0.0032424,0.00039779,0.0,0 STARLINK-5260,1 55275U 23010G   23165.58334491  .00039779  00000-0  32424-2 0  9996,2 55275  70.0016  23.7588 0002967 267.4506 240.9869 14.99274830 23300,6947.273,96.046,571.199,567.076,0.0
55275.0,STARLINK-5260,PAYLOAD,2023-06-14 22:00:00,14.99272204,0.0002961,70.0013,22.9173,273.6008,233.4658,0.0015972,0.00019489,0.0,0 STARLINK-5260,1 55275U 23010G   23165.91667824  .00019489  00000-0  15972-2 0  9997,2 55275  70.0013  22.9173 0002961 273.6008 233.4658 14.99272204 23359,6947.281,96.047,571.203,567.089,0.0
55275.0,STARLINK-5260,PAYLOAD,2023-06-15 14:00:01,14.99291864,0.0002922,70.0014,21.234,267.6806,236.6373,0.0019386,0.00023701,0.0,0 STARLINK-5260,1 55275U 23010G   23166.58334491  .00023701  00000-0  19386-2 0  9997,2 55275  70.0014  21.2340 0002922 267.6806 236.6373 14.99291864  1307,6947.22,96.045,571.115,567.055,0.0
55275.0,STARLINK-5260,PAYLOAD,2023-06-15 20:00:01,14.99304383,0.0002964,70.0012,20.6026,272.3704,140.9351,-0.00078892,-9.735e-05,0.0,0 STARLINK-5260,1 55275U 23010G   23166.83334491 -.00009735  00000-0 -78892-3 0  9996,2 55275  70.0012  20.6026 0002964 272.3704 140.9351 14.99304383  1309,6947.181,96.045,571.105,566.987,0.0
55275.0,STARLINK-5260,PAYLOAD,2023-06-16 06:00:00,14.99329254,0.0002865,70.0008,19.5505,272.959,228.6568,-0.0031572,-0.00038542,0.0,0 STARLINK-5260,1 55275U 23010G   23167.25001157 -.00038542  00000-0 -31572-2 0  9994,2 55275  70.0008  19.5505 0002865 272.9590 228.6568 14.99329254 23551,6947.104,96.043,570.96,566.979,0.0
55275.0,STARLINK-5260,PAYLOAD,2023-06-16 14:00:01,14.99324449,0.0002882,70.001,18.7087,268.1059,232.1732,0.001632,0.00019944,0.0,0 STARLINK-5260,1 55275U 23010G   23167.58334491  .00019944  00000-0  16320-2 0  9997,2 55275  70.0010  18.7087 0002882 268.1059 232.1732 14.99324449 23606,6947.119,96.043,570.986,566.982,0.0
55275.0,STARLINK-5260,PAYLOAD,2023-06-16 22:00:00,14.99340919,0.0002897,70.0008,17.8669,272.8278,226.1389,-0.0045619,-0.00055532,0.0,0 STARLINK-5260,1 55275U 23010G   23167.91667824 -.00055532  00000-0 -45619-2 0  9991,2 55275  70.0008  17.8669 0002897 272.8278 226.1389 14.99340919  1304,6947.068,96.042,570.946,566.921,0.0
55275.0,STARLINK-5260,PAYLOAD,2023-06-17 06:00:02,14.99300935,0.0002848,70.0005,17.025,268.7276,228.9697,-0.0030894,-0.00037693,0.0,0 STARLINK-5260,1 55275U 23010G   23168.25002315 -.00037693  00000-0 -30894-2 0  9994,2 55275  70.0005  17.0250 0002848 268.7276 228.9697 14.99300935 23701,6947.192,96.045,571.036,567.078,0.0
55275.0,STARLINK-5260,PAYLOAD,2023-06-17 14:00:01,14.99290263,0.0002876,70.0007,16.1832,263.0007,233.256,0.0012373,0.00015074,0.0,0 STARLINK-5260,1 55275U 23010G   23168.58334491  .00015074  00000-0  12373-2 0  9992,2 55275  70.0007  16.1832 0002876 263.0007 233.2560 14.99290263  1302,6947.225,96.045,571.088,567.092,0.0
55275.0,STARLINK-5260,PAYLOAD,2023-06-17 19:47:58,14.9929529,0.0002938,69.9989,15.5726,268.9747,91.1076,-4.0072e-05,-5.84e-06,0.0,0 STARLINK-5260,1 55275U 23010G   23168.82498309 -.00000584  00000-0 -40072-4 0  9999,2 55275  69.9989  15.5726 0002938 268.9747  91.1076 14.99295290 24108,6947.209,96.045,571.116,567.033,0.0
55275.0,STARLINK-5260,PAYLOAD,2023-06-17 22:00:01,14.99281933,0.000289,70.0006,15.3413,269.6875,225.2788,0.0023635,0.00028931,0.0,0 STARLINK-5260,1 55275U 23010G   23168.91668981  .00028931  00000-0  23635-2 0  9992,2 55275  70.0006  15.3413 0002890 269.6875 225.2788 14.99281933 23804,6947.251,96.046,571.123,567.108,0.0
55275.0,STARLINK-5260,PAYLOAD,2023-06-18 07:00:28,14.99300041,0.0002838,69.9989,14.3935,267.5142,92.5693,-2.8011e-05,-4.37e-06,0.0,0 STARLINK-5260,1 55275U 23010G   23169.29199771 -.00000437  00000-0 -28011-4 0  9998,2 55275  69.9989  14.3935 0002838 267.5142  92.5693 14.99300041 23852,6947.195,96.045,571.031,567.088,0.0
55275.0,STARLINK-5260,PAYLOAD,2023-06-18 19:49:02,14.99310881,0.0002839,69.9991,13.0462,267.0983,92.9851,-6.5055e-05,-8.9e-06,0.0,0 STARLINK-5260,1 55275U 23010G   23169.82572426 -.00000890  00000-0 -65055-4 0  9991,2 55275  69.9991  13.0462 0002839 267.0983  92.9851 14.99310881 23937,6947.161,96.044,570.999,567.054,0.0
55275.0,STARLINK-5260,PAYLOAD,2023-06-19 16:37:58,14.99296582,0.0002913,69.9989,10.8549,266.3495,93.7332,9.4222e-05,1.059e-05,0.0,0 STARLINK-5260,1 55275U 23010G   23170.69304381  .00001059  00000-0  94222-4 0  9995,2 55275  69.9989  10.8549 0002913 266.3495  93.7332 14.99296582 24067,6947.205,96.045,571.094,567.047,0.0
55275.0,STARLINK-5260,PAYLOAD,2023-06-19 19:50:07,14.99301244,0.0002961,69.9989,10.518,268.1646,91.9174,6.1294e-05,6.56e-06,0.0,0 STARLINK-5260,1 55275U 23010G   23170.82647564  .00000656  00000-0  61294-4 0  9998,2 55275  69.9989  10.5180 0002961 268.1646  91.9174 14.99301244 24400,6947.191,96.045,571.113,566.999,0.0
55275.0,STARLINK-5260,PAYLOAD,2023-06-20 07:02:37,14.99298766,0.0002757,69.9993,9.3379,264.5512,95.5333,3.8092e-05,3.72e-06,0.0,0 STARLINK-5260,1 55275U 23010G   23171.29349502  .00000372  00000-0  38092-4 0  9996,2 55275  69.9993   9.3379 0002757 264.5512  95.5333 14.99298766 24474,6947.199,96.045,570.979,567.148,0.0
